start=new Date('2022-07-19T00:00:00.000Z').valueOf();
sats=[{"OBJECT_TYPE":"PAYLOAD","OBJECT_NAME":"STARLINK-3373","TLE_LINE1":"1 51122U 22005U   22199.55791170  .00002653  00000-0  18469-3 0  9995","TLE_LINE2":"2 51122  53.2173 140.3223 0002169  64.5129 295.6087 15.08849197 29183","INCLINATION":"53.2173","MEAN_ELEMENT_THEORY":"SGP4","OBJECT_ID":"2022-005U","FILE":"3517069","ARG_OF_PERICENTER":"64.5129","ELEMENT_SET_NO":"999","APOAPSIS":"541.218","MEAN_MOTION":"15.08849197","COUNTRY_CODE":"US","REV_AT_EPOCH":"2918","DECAY_DATE":null,"REF_FRAME":"TEME","RCS_SIZE":"LARGE","NORAD_CAT_ID":"51122","MEAN_ANOMALY":"295.6087","CLASSIFICATION_TYPE":"U","GP_ID":"208382644","BSTAR":"0.00018469000000","ECCENTRICITY":"0.00021690","LAUNCH_DATE":"2022-01-19","SEMIMAJOR_AXIS":"6917.852","CENTER_NAME":"EARTH","MEAN_MOTION_DDOT":"0.0000000000000","MEAN_MOTION_DOT":"0.00002653","EPOCH":"2022-07-18T13:23:23.570880","TIME_SYSTEM":"UTC","PERIAPSIS":"538.217","RA_OF_ASC_NODE":"140.3223","PERIOD":"95.437","SITE":"AFETR","EPHEMERIS_TYPE":"0"},{"PERIOD":"95.438","RA_OF_ASC_NODE":"140.3551","PERIAPSIS":"538.071","EPHEMERIS_TYPE":"0","SITE":"AFETR","CENTER_NAME":"EARTH","LAUNCH_DATE":"2022-01-19","SEMIMAJOR_AXIS":"6917.888","ECCENTRICITY":"0.00024310","EPOCH":"2022-07-18T13:12:48.403008","TIME_SYSTEM":"UTC","MEAN_MOTION_DOT":"-0.00001065","MEAN_MOTION_DDOT":"0.0000000000000","MEAN_ANOMALY":"301.2604","NORAD_CAT_ID":"51123","BSTAR":"-0.00004883100000","CLASSIFICATION_TYPE":"U","GP_ID":"208377353","REF_FRAME":"TEME","RCS_SIZE":"LARGE","DECAY_DATE":null,"REV_AT_EPOCH":"2807","MEAN_MOTION":"15.08837615","COUNTRY_CODE":"US","FILE":"3516915","ARG_OF_PERICENTER":"58.8626","MEAN_ELEMENT_THEORY":"SGP4","OBJECT_ID":"2022-005V","INCLINATION":"53.2173","APOAPSIS":"541.434","ELEMENT_SET_NO":"999","TLE_LINE2":"2 51123  53.2173 140.3551 0002431  58.8626 301.2604 15.08837615 28076","TLE_LINE1":"1 51123U 22005V   22199.55056022 -.00001065  00000-0 -48831-4 0  9991","OBJECT_TYPE":"PAYLOAD","OBJECT_NAME":"STARLINK-3392"},{"SITE":"AFETR","EPHEMERIS_TYPE":"0","PERIAPSIS":"538.276","RA_OF_ASC_NODE":"150.1511","PERIOD":"95.438","MEAN_MOTION_DDOT":"0.0000000000000","MEAN_MOTION_DOT":"-0.00001266","EPOCH":"2022-07-18T14:15:03.995136","TIME_SYSTEM":"UTC","ECCENTRICITY":"0.00021290","LAUNCH_DATE":"2022-01-19","SEMIMAJOR_AXIS":"6917.884","CENTER_NAME":"EARTH","GP_ID":"208408288","CLASSIFICATION_TYPE":"U","BSTAR":"-0.00006146300000","NORAD_CAT_ID":"51124","MEAN_ANOMALY":"304.6791","DECAY_DATE":null,"REV_AT_EPOCH":"2794","RCS_SIZE":"LARGE","REF_FRAME":"TEME","COUNTRY_CODE":"US","MEAN_MOTION":"15.08838801","ELEMENT_SET_NO":"999","APOAPSIS":"541.222","INCLINATION":"53.2186","OBJECT_ID":"2022-005W","MEAN_ELEMENT_THEORY":"SGP4","FILE":"3517175","ARG_OF_PERICENTER":"55.4402","TLE_LINE2":"2 51124  53.2186 150.1511 0002129  55.4402 304.6791 15.08838801 27942","OBJECT_NAME":"STARLINK-3389","OBJECT_TYPE":"PAYLOAD","TLE_LINE1":"1 51124U 22005W   22199.59379624 -.00001266  00000-0 -61463-4 0  9991"},{"MEAN_MOTION":"15.08843146","COUNTRY_CODE":"US","INCLINATION":"53.2173","ARG_OF_PERICENTER":"52.3225","FILE":"3517070","MEAN_ELEMENT_THEORY":"SGP4","OBJECT_ID":"2022-005X","ELEMENT_SET_NO":"999","APOAPSIS":"541.134","TLE_LINE2":"2 51125  53.2173 149.0207 0002021  52.3225 307.7950 15.08843146 29084","TLE_LINE1":"1 51125U 22005X   22199.84771408  .00000365  00000-0  41035-4 0  9996","OBJECT_NAME":"STARLINK-3387","OBJECT_TYPE":"PAYLOAD","PERIAPSIS":"538.338","PERIOD":"95.437","RA_OF_ASC_NODE":"149.0207","EPHEMERIS_TYPE":"0","SITE":"AFETR","SEMIMAJOR_AXIS":"6917.871","LAUNCH_DATE":"2022-01-19","ECCENTRICITY":"0.00020210","CENTER_NAME":"EARTH","MEAN_MOTION_DDOT":"0.0000000000000","TIME_SYSTEM":"UTC","EPOCH":"2022-07-18T20:20:42.496512","MEAN_MOTION_DOT":"0.00000365","NORAD_CAT_ID":"51125","MEAN_ANOMALY":"307.7950","GP_ID":"208382661","CLASSIFICATION_TYPE":"U","BSTAR":"0.00004103500000","REV_AT_EPOCH":"2908","DECAY_DATE":null,"RCS_SIZE":"LARGE","REF_FRAME":"TEME"},{"EPHEMERIS_TYPE":"0","SITE":"AFETR","PERIOD":"95.438","RA_OF_ASC_NODE":"150.1769","PERIAPSIS":"538.253","EPOCH":"2022-07-18T14:09:46.059552","TIME_SYSTEM":"UTC","MEAN_MOTION_DOT":"-0.00001263","MEAN_MOTION_DDOT":"0.0000000000000","CENTER_NAME":"EARTH","ECCENTRICITY":"0.00021640","LAUNCH_DATE":"2022-01-19","SEMIMAJOR_AXIS":"6917.885","BSTAR":"-0.00006123800000","CLASSIFICATION_TYPE":"U","GP_ID":"208376609","MEAN_ANOMALY":"306.7524","NORAD_CAT_ID":"51126","RCS_SIZE":"LARGE","REF_FRAME":"TEME","DECAY_DATE":null,"REV_AT_EPOCH":"2794","COUNTRY_CODE":"US","MEAN_MOTION":"15.08838440","APOAPSIS":"541.247","ELEMENT_SET_NO":"999","ARG_OF_PERICENTER":"53.3667","FILE":"3516915","MEAN_ELEMENT_THEORY":"SGP4","OBJECT_ID":"2022-005Y","INCLINATION":"53.2190","TLE_LINE2":"2 51126  53.2190 150.1769 0002164  53.3667 306.7524 15.08838440 27949","TLE_LINE1":"1 51126U 22005Y   22199.59011643 -.00001263  00000-0 -61238-4 0  9994","OBJECT_TYPE":"PAYLOAD","OBJECT_NAME":"STARLINK-3386"},{"TLE_LINE2":"2 51127  53.2193 148.9971 0002018  59.2694 300.8497 15.08851902 29096","TLE_LINE1":"1 51127U 22005Z   22199.85139037 -.00001946  00000-0 -10413-3 0  9998","OBJECT_NAME":"STARLINK-3370","OBJECT_TYPE":"PAYLOAD","MEAN_MOTION":"15.08851902","COUNTRY_CODE":"US","ARG_OF_PERICENTER":"59.2694","FILE":"3517070","OBJECT_ID":"2022-005Z","MEAN_ELEMENT_THEORY":"SGP4","INCLINATION":"53.2193","APOAPSIS":"541.105","ELEMENT_SET_NO":"999","MEAN_ANOMALY":"300.8497","NORAD_CAT_ID":"51127","BSTAR":"-0.00010413000000","GP_ID":"208383152","CLASSIFICATION_TYPE":"U","REF_FRAME":"TEME","RCS_SIZE":"LARGE","REV_AT_EPOCH":"2909","DECAY_DATE":null,"PERIOD":"95.437","RA_OF_ASC_NODE":"148.9971","PERIAPSIS":"538.313","EPHEMERIS_TYPE":"0","SITE":"AFETR","CENTER_NAME":"EARTH","LAUNCH_DATE":"2022-01-19","ECCENTRICITY":"0.00020180","SEMIMAJOR_AXIS":"6917.844","TIME_SYSTEM":"UTC","EPOCH":"2022-07-18T20:26:00.127968","MEAN_MOTION_DOT":"-0.00001946","MEAN_MOTION_DDOT":"0.0000000000000"},{"TLE_LINE2":"2 51128  53.2187 150.2844 0002441  61.2549 298.8688 15.08831345 27924","TLE_LINE1":"1 51128U 22005AA  22199.56804397 -.00001789  00000-0 -94319-4 0  9998","OBJECT_NAME":"STARLINK-3400","OBJECT_TYPE":"PAYLOAD","MEAN_MOTION":"15.08831345","COUNTRY_CODE":"US","INCLINATION":"53.2187","ARG_OF_PERICENTER":"61.2549","FILE":"3516915","OBJECT_ID":"2022-005AA","MEAN_ELEMENT_THEORY":"SGP4","ELEMENT_SET_NO":"999","APOAPSIS":"541.461","NORAD_CAT_ID":"51128","MEAN_ANOMALY":"298.8688","CLASSIFICATION_TYPE":"U","GP_ID":"208377608","BSTAR":"-0.00009431900000","REV_AT_EPOCH":"2792","DECAY_DATE":null,"RCS_SIZE":"LARGE","REF_FRAME":"TEME","PERIAPSIS":"538.083","PERIOD":"95.438","RA_OF_ASC_NODE":"150.2844","EPHEMERIS_TYPE":"0","SITE":"AFETR","LAUNCH_DATE":"2022-01-19","ECCENTRICITY":"0.00024410","SEMIMAJOR_AXIS":"6917.907","CENTER_NAME":"EARTH","MEAN_MOTION_DDOT":"0.0000000000000","EPOCH":"2022-07-18T13:37:58.999008","TIME_SYSTEM":"UTC","MEAN_MOTION_DOT":"-0.00001789"},{"TLE_LINE2":"2 51129  53.2194 150.1632 0002457  53.7549 306.3670 15.08839403 27930","OBJECT_TYPE":"PAYLOAD","OBJECT_NAME":"STARLINK-3396","TLE_LINE1":"1 51129U 22005AB  22199.59475269 -.00000089  00000-0  12528-4 0  9997","COUNTRY_CODE":"US","MEAN_MOTION":"15.08839403","APOAPSIS":"541.447","ELEMENT_SET_NO":"999","OBJECT_ID":"2022-005AB","MEAN_ELEMENT_THEORY":"SGP4","FILE":"3517175","ARG_OF_PERICENTER":"53.7549","INCLINATION":"53.2194","BSTAR":"0.00001252800000","CLASSIFICATION_TYPE":"U","GP_ID":"208409040","MEAN_ANOMALY":"306.3670","NORAD_CAT_ID":"51129","REF_FRAME":"TEME","RCS_SIZE":"LARGE","DECAY_DATE":null,"REV_AT_EPOCH":"2793","SITE":"AFETR","EPHEMERIS_TYPE":"0","RA_OF_ASC_NODE":"150.1632","PERIOD":"95.438","PERIAPSIS":"538.047","MEAN_MOTION_DOT":"-0.00000089","EPOCH":"2022-07-18T14:16:26.632416","TIME_SYSTEM":"UTC","MEAN_MOTION_DDOT":"0.0000000000000","CENTER_NAME":"EARTH","LAUNCH_DATE":"2022-01-19","SEMIMAJOR_AXIS":"6917.882","ECCENTRICITY":"0.00024570"},{"NORAD_CAT_ID":"51130","MEAN_ANOMALY":"301.1766","CLASSIFICATION_TYPE":"U","GP_ID":"208377104","BSTAR":"0.00021688000000","DECAY_DATE":null,"REV_AT_EPOCH":"2792","RCS_SIZE":"LARGE","REF_FRAME":"TEME","PERIAPSIS":"538.093","RA_OF_ASC_NODE":"150.2265","PERIOD":"95.437","SITE":"AFETR","EPHEMERIS_TYPE":"0","LAUNCH_DATE":"2022-01-19","ECCENTRICITY":"0.00023710","SEMIMAJOR_AXIS":"6917.868","CENTER_NAME":"EARTH","MEAN_MOTION_DDOT":"0.0000000000000","MEAN_MOTION_DOT":"0.00003165","TIME_SYSTEM":"UTC","EPOCH":"2022-07-18T13:53:52.555200","TLE_LINE2":"2 51130  53.2162 150.2265 0002371  58.9459 301.1766 15.08844075 27921","OBJECT_TYPE":"PAYLOAD","OBJECT_NAME":"STARLINK-3395","TLE_LINE1":"1 51130U 22005AC  22199.57908050  .00003165  00000-0  21688-3 0  9999","MEAN_MOTION":"15.08844075","COUNTRY_CODE":"US","INCLINATION":"53.2162","MEAN_ELEMENT_THEORY":"SGP4","OBJECT_ID":"2022-005AC","FILE":"3516915","ARG_OF_PERICENTER":"58.9459","ELEMENT_SET_NO":"999","APOAPSIS":"541.373"},{"REF_FRAME":"TEME","RCS_SIZE":"LARGE","REV_AT_EPOCH":"2904","DECAY_DATE":null,"MEAN_ANOMALY":"304.9869","NORAD_CAT_ID":"51131","BSTAR":"0.00003194500000","GP_ID":"208383183","CLASSIFICATION_TYPE":"U","CENTER_NAME":"EARTH","LAUNCH_DATE":"2022-01-19","ECCENTRICITY":"0.00024610","SEMIMAJOR_AXIS":"6917.883","TIME_SYSTEM":"UTC","EPOCH":"2022-07-18T13:43:17.072832","MEAN_MOTION_DOT":"0.00000220","MEAN_MOTION_DDOT":"0.0000000000000","PERIOD":"95.438","RA_OF_ASC_NODE":"150.2686","PERIAPSIS":"538.046","EPHEMERIS_TYPE":"0","SITE":"AFETR","TLE_LINE1":"1 51131U 22005AD  22199.57172538  .00000220  00000-0  31945-4 0  9991","OBJECT_NAME":"STARLINK-3388","OBJECT_TYPE":"PAYLOAD","TLE_LINE2":"2 51131  53.2178 150.2686 0002461  55.1354 304.9869 15.08839112 29045","FILE":"3517072","ARG_OF_PERICENTER":"55.1354","MEAN_ELEMENT_THEORY":"SGP4","OBJECT_ID":"2022-005AD","INCLINATION":"53.2178","APOAPSIS":"541.451","ELEMENT_SET_NO":"999","MEAN_MOTION":"15.08839112","COUNTRY_CODE":"US"}];
